STARLINK-31863          
1 59789U 24093H   26068.46042682  .00000928  00000+0  43258-4 0  9994
2 59789  43.0004 209.9087 0001219 266.9233  93.1479 15.27574977102662
FLOCK 4G-18             
1 62680U 25009BZ  26068.19114186  .00011766  00000+0  44319-3 0  9995
2 62680  97.4054 150.5008 0004100 335.7331  24.3715 15.27241676121267
